start=new Date('2021-11-09T00:00:00.000Z').valueOf();
sats=[{"DECAY_DATE":null,"OBJECT_TYPE":"PAYLOAD","SITE":"AFETR","BSTAR":"0.00012610000000","ECCENTRICITY":"0.00015820","FILE":"3209238","MEAN_MOTION_DOT":"0.00001597","MEAN_ANOMALY":"273.1560","CLASSIFICATION_TYPE":"U","ELEMENT_SET_NO":"999","LAUNCH_DATE":"2019-11-11","TLE_LINE1":"1 44718U 19074F   21312.11004996  .00001597  00000-0  12610-3 0  9999","REF_FRAME":"TEME","SEMIMAJOR_AXIS":"6925.361","OBJECT_ID":"2019-074F","GP_ID":"189269352","MEAN_ELEMENT_THEORY":"SGP4","MEAN_MOTION_DDOT":"0.0000000000000","CENTER_NAME":"EARTH","ARG_OF_PERICENTER":"86.9610","MEAN_MOTION":"15.06396074","REV_AT_EPOCH":"11021","OBJECT_NAME":"STARLINK-1012","PERIOD":"95.592","TLE_LINE2":"2 44718  53.0546  91.0952 0001582  86.9610 273.1560 15.06396074110211","RCS_SIZE":"LARGE","RA_OF_ASC_NODE":"91.0952","COUNTRY_CODE":"US","PERIAPSIS":"546.130","EPOCH":"2021-11-08T02:38:28.316544","TIME_SYSTEM":"UTC","NORAD_CAT_ID":"44718","INCLINATION":"53.0546","EPHEMERIS_TYPE":"0","APOAPSIS":"548.321"},{"RA_OF_ASC_NODE":"89.5614","RCS_SIZE":"LARGE","TLE_LINE2":"2 44719  53.0557  89.5614 0001508  92.1725 267.9437 15.06401451110439","OBJECT_NAME":"STARLINK-1013","PERIOD":"95.592","INCLINATION":"53.0557","EPHEMERIS_TYPE":"0","APOAPSIS":"548.253","TIME_SYSTEM":"UTC","EPOCH":"2021-11-08T10:46:47.284032","NORAD_CAT_ID":"44719","PERIAPSIS":"546.165","COUNTRY_CODE":"US","SEMIMAJOR_AXIS":"6925.344","REF_FRAME":"TEME","ARG_OF_PERICENTER":"92.1725","MEAN_MOTION":"15.06401451","REV_AT_EPOCH":"11043","GP_ID":"189275737","MEAN_ELEMENT_THEORY":"SGP4","CENTER_NAME":"EARTH","MEAN_MOTION_DDOT":"0.0000000000000","OBJECT_ID":"2019-074G","CLASSIFICATION_TYPE":"U","MEAN_ANOMALY":"267.9437","TLE_LINE1":"1 44719U 19074G   21312.44915838  .00001447  00000-0  11602-3 0  9996","LAUNCH_DATE":"2019-11-11","ELEMENT_SET_NO":"999","OBJECT_TYPE":"PAYLOAD","DECAY_DATE":null,"MEAN_MOTION_DOT":"0.00001447","FILE":"3209366","ECCENTRICITY":"0.00015080","BSTAR":"0.00011602000000","SITE":"AFETR"},{"REF_FRAME":"TEME","SEMIMAJOR_AXIS":"6925.270","CENTER_NAME":"EARTH","MEAN_MOTION_DDOT":"0.0000000000000","MEAN_ELEMENT_THEORY":"SGP4","GP_ID":"189300839","OBJECT_ID":"2019-074H","ARG_OF_PERICENTER":"83.9479","MEAN_MOTION":"15.06425704","REV_AT_EPOCH":"11030","TLE_LINE2":"2 44720  53.0531  88.5986 0002166  83.9479 276.1757 15.06425704110309","PERIOD":"95.591","OBJECT_NAME":"STARLINK-1014","RA_OF_ASC_NODE":"88.5986","RCS_SIZE":"LARGE","TIME_SYSTEM":"UTC","EPOCH":"2021-11-08T15:59:55.690656","NORAD_CAT_ID":"44720","PERIAPSIS":"545.635","COUNTRY_CODE":"US","APOAPSIS":"548.635","EPHEMERIS_TYPE":"0","INCLINATION":"53.0531","DECAY_DATE":null,"OBJECT_TYPE":"PAYLOAD","BSTAR":"-0.00061309000000","SITE":"AFETR","MEAN_MOTION_DOT":"-0.00009409","ECCENTRICITY":"0.00021660","FILE":"3209620","MEAN_ANOMALY":"276.1757","CLASSIFICATION_TYPE":"U","ELEMENT_SET_NO":"999","TLE_LINE1":"1 44720U 19074H   21312.66661679 -.00009409  00000-0 -61309-3 0  9990","LAUNCH_DATE":"2019-11-11"},{"OBJECT_TYPE":"PAYLOAD","DECAY_DATE":null,"MEAN_MOTION_DOT":"0.00001814","ECCENTRICITY":"0.00015870","FILE":"3209620","BSTAR":"0.00014066000000","SITE":"AFETR","CLASSIFICATION_TYPE":"U","MEAN_ANOMALY":"275.6062","TLE_LINE1":"1 44721U 19074J   21312.65556086  .00001814  00000-0  14066-3 0  9993","LAUNCH_DATE":"2019-11-11","ELEMENT_SET_NO":"999","SEMIMAJOR_AXIS":"6925.346","REF_FRAME":"TEME","MEAN_MOTION":"15.06400826","ARG_OF_PERICENTER":"84.5108","REV_AT_EPOCH":"11029","CENTER_NAME":"EARTH","MEAN_MOTION_DDOT":"0.0000000000000","MEAN_ELEMENT_THEORY":"SGP4","GP_ID":"189301591","OBJECT_ID":"2019-074J","RA_OF_ASC_NODE":"88.6353","RCS_SIZE":"LARGE","TLE_LINE2":"2 44721  53.0538  88.6353 0001587  84.5108 275.6062 15.06400826110297","PERIOD":"95.592","OBJECT_NAME":"STARLINK-1015","APOAPSIS":"548.310","INCLINATION":"53.0538","EPHEMERIS_TYPE":"0","TIME_SYSTEM":"UTC","EPOCH":"2021-11-08T15:44:00.458304","NORAD_CAT_ID":"44721","COUNTRY_CODE":"US","PERIAPSIS":"546.112"},{"REF_FRAME":"TEME","SEMIMAJOR_AXIS":"6925.412","MEAN_MOTION_DDOT":"0.0000000000000","CENTER_NAME":"EARTH","GP_ID":"189301342","MEAN_ELEMENT_THEORY":"SGP4","OBJECT_ID":"2019-074K","MEAN_MOTION":"15.06379261","REV_AT_EPOCH":"11031","ARG_OF_PERICENTER":"87.2063","TLE_LINE2":"2 44722  53.0548  88.3297 0001368  87.2063 272.9083 15.06379261110314","PERIOD":"95.593","OBJECT_NAME":"STARLINK-1016","RA_OF_ASC_NODE":"88.3297","RCS_SIZE":"LARGE","TIME_SYSTEM":"UTC","NORAD_CAT_ID":"44722","EPOCH":"2021-11-08T17:24:54.236736","PERIAPSIS":"546.330","COUNTRY_CODE":"US","APOAPSIS":"548.225","INCLINATION":"53.0548","EPHEMERIS_TYPE":"0","DECAY_DATE":null,"OBJECT_TYPE":"PAYLOAD","SITE":"AFETR","BSTAR":"0.00016516000000","MEAN_MOTION_DOT":"0.00002178","ECCENTRICITY":"0.00013680","FILE":"3209620","MEAN_ANOMALY":"272.9083","CLASSIFICATION_TYPE":"U","ELEMENT_SET_NO":"999","TLE_LINE1":"1 44722U 19074K   21312.72562774  .00002178  00000-0  16516-3 0  9999","LAUNCH_DATE":"2019-11-11"},{"RA_OF_ASC_NODE":"88.5662","RCS_SIZE":"LARGE","TLE_LINE2":"2 44723  53.0562  88.5662 0001460  85.2773 274.8383 15.06393053110306","PERIOD":"95.593","OBJECT_NAME":"STARLINK-1017","APOAPSIS":"548.246","INCLINATION":"53.0562","EPHEMERIS_TYPE":"0","NORAD_CAT_ID":"44723","TIME_SYSTEM":"UTC","EPOCH":"2021-11-08T16:10:34.095936","PERIAPSIS":"546.224","COUNTRY_CODE":"US","SEMIMAJOR_AXIS":"6925.370","REF_FRAME":"TEME","REV_AT_EPOCH":"11030","MEAN_MOTION":"15.06393053","ARG_OF_PERICENTER":"85.2773","CENTER_NAME":"EARTH","MEAN_MOTION_DDOT":"0.0000000000000","MEAN_ELEMENT_THEORY":"SGP4","GP_ID":"189300090","OBJECT_ID":"2019-074L","CLASSIFICATION_TYPE":"U","MEAN_ANOMALY":"274.8383","TLE_LINE1":"1 44723U 19074L   21312.67400574  .00001987  00000-0  15230-3 0  9992","LAUNCH_DATE":"2019-11-11","ELEMENT_SET_NO":"999","OBJECT_TYPE":"PAYLOAD","DECAY_DATE":null,"MEAN_MOTION_DOT":"0.00001987","ECCENTRICITY":"0.00014600","FILE":"3209620","SITE":"AFETR","BSTAR":"0.00015230000000"},{"COUNTRY_CODE":"US","PERIAPSIS":"546.296","TIME_SYSTEM":"UTC","EPOCH":"2021-11-08T12:06:25.475328","NORAD_CAT_ID":"44724","APOAPSIS":"548.242","INCLINATION":"53.0548","EPHEMERIS_TYPE":"0","PERIOD":"95.593","OBJECT_NAME":"STARLINK-1019","TLE_LINE2":"2 44724  53.0548  89.3256 0001405  91.9277 268.1873 15.06381999110273","RCS_SIZE":"LARGE","RA_OF_ASC_NODE":"89.3256","OBJECT_ID":"2019-074M","MEAN_MOTION_DDOT":"0.0000000000000","CENTER_NAME":"EARTH","GP_ID":"189269855","MEAN_ELEMENT_THEORY":"SGP4","ARG_OF_PERICENTER":"91.9277","MEAN_MOTION":"15.06381999","REV_AT_EPOCH":"11027","REF_FRAME":"TEME","SEMIMAJOR_AXIS":"6925.404","ELEMENT_SET_NO":"999","LAUNCH_DATE":"2019-11-11","TLE_LINE1":"1 44724U 19074M   21312.50446152  .00001184  00000-0  98417-4 0  9995","MEAN_ANOMALY":"268.1873","CLASSIFICATION_TYPE":"U","BSTAR":"0.00009841700000","SITE":"AFETR","ECCENTRICITY":"0.00014050","FILE":"3209238","MEAN_MOTION_DOT":"0.00001184","DECAY_DATE":null,"OBJECT_TYPE":"PAYLOAD"},{"MEAN_ANOMALY":"265.8019","CLASSIFICATION_TYPE":"U","ELEMENT_SET_NO":"999","LAUNCH_DATE":"2019-11-11","TLE_LINE1":"1 44725U 19074N   21312.70901709  .00001106  00000-0  93162-4 0  9998","DECAY_DATE":null,"OBJECT_TYPE":"PAYLOAD","BSTAR":"0.00009316200000","SITE":"AFETR","FILE":"3209620","ECCENTRICITY":"0.00013630","MEAN_MOTION_DOT":"0.00001106","OBJECT_NAME":"STARLINK-1020","PERIOD":"95.593","TLE_LINE2":"2 44725  53.0537 108.4009 0001363  94.3125 265.8019 15.06391659110026","RCS_SIZE":"LARGE","RA_OF_ASC_NODE":"108.4009","COUNTRY_CODE":"US","PERIAPSIS":"546.295","TIME_SYSTEM":"UTC","NORAD_CAT_ID":"44725","EPOCH":"2021-11-08T17:00:59.076576","EPHEMERIS_TYPE":"0","INCLINATION":"53.0537","APOAPSIS":"548.183","REF_FRAME":"TEME","SEMIMAJOR_AXIS":"6925.374","OBJECT_ID":"2019-074N","GP_ID":"189301092","MEAN_ELEMENT_THEORY":"SGP4","CENTER_NAME":"EARTH","MEAN_MOTION_DDOT":"0.0000000000000","MEAN_MOTION":"15.06391659","ARG_OF_PERICENTER":"94.3125","REV_AT_EPOCH":"11002"},{"SEMIMAJOR_AXIS":"6925.366","REF_FRAME":"TEME","ARG_OF_PERICENTER":"96.0101","MEAN_MOTION":"15.06394367","REV_AT_EPOCH":"11044","OBJECT_ID":"2019-074P","MEAN_ELEMENT_THEORY":"SGP4","GP_ID":"189275755","CENTER_NAME":"EARTH","MEAN_MOTION_DDOT":"0.0000000000000","RCS_SIZE":"LARGE","RA_OF_ASC_NODE":"89.3502","OBJECT_NAME":"STARLINK-1021","PERIOD":"95.592","TLE_LINE2":"2 44726  53.0550  89.3502 0001421  96.0101 264.1050 15.06394367110447","INCLINATION":"53.0550","EPHEMERIS_TYPE":"0","APOAPSIS":"548.215","PERIAPSIS":"546.247","COUNTRY_CODE":"US","NORAD_CAT_ID":"44726","TIME_SYSTEM":"UTC","EPOCH":"2021-11-08T12:01:05.880864","OBJECT_TYPE":"PAYLOAD","DECAY_DATE":null,"FILE":"3209331","ECCENTRICITY":"0.00014210","MEAN_MOTION_DOT":"0.00000470","BSTAR":"0.00005042500000","SITE":"AFETR","CLASSIFICATION_TYPE":"U","MEAN_ANOMALY":"264.1050","LAUNCH_DATE":"2019-11-11","TLE_LINE1":"1 44726U 19074P   21312.50076251  .00000470  00000-0  50425-4 0  9990","ELEMENT_SET_NO":"999"},{"TLE_LINE1":"1 44727U 19074Q   21312.60398770  .00003544  00000-0  25678-3 0  9991","LAUNCH_DATE":"2019-11-11","ELEMENT_SET_NO":"999","CLASSIFICATION_TYPE":"U","MEAN_ANOMALY":"279.4252","MEAN_MOTION_DOT":"0.00003544","ECCENTRICITY":"0.00016300","FILE":"3209620","SITE":"AFETR","BSTAR":"0.00025678000000","OBJECT_TYPE":"PAYLOAD","DECAY_DATE":null,"INCLINATION":"53.0629","EPHEMERIS_TYPE":"0","APOAPSIS":"548.372","EPOCH":"2021-11-08T14:29:44.537280","NORAD_CAT_ID":"44727","TIME_SYSTEM":"UTC","COUNTRY_CODE":"US","PERIAPSIS":"546.114","RA_OF_ASC_NODE":"128.8177","RCS_SIZE":"LARGE","TLE_LINE2":"2 44727  53.0629 128.8177 0001630  80.6922 279.4252 15.06390420109744","OBJECT_NAME":"STARLINK-1022","PERIOD":"95.593","ARG_OF_PERICENTER":"80.6922","MEAN_MOTION":"15.06390420","REV_AT_EPOCH":"10974","MEAN_ELEMENT_THEORY":"SGP4","GP_ID":"189300590","MEAN_MOTION_DDOT":"0.0000000000000","CENTER_NAME":"EARTH","OBJECT_ID":"2019-074Q","SEMIMAJOR_AXIS":"6925.378","REF_FRAME":"TEME"}];
